{
    "links": {
        "self": "http://www.neowsapp.com/rest/v1/neo/3672465?api_key=iIulBulltgU6a56xZRHN4H3l9WmuAYTsLGpBGhQ2"
    },
    "id": "3672465",
    "neo_reference_id": "3672465",
    "name": "(2014 KO39)",
    "designation": "2014 KO39",
    "nasa_jpl_url": "http://ssd.jpl.nasa.gov/sbdb.cgi?sstr=3672465",
    "absolute_magnitude_h": 23.4,
    "estimated_diameter": {
        "kilometers": {
            "estimated_diameter_min": 0.0555334912,
            "estimated_diameter_max": 0.1241766613
        },
        "meters": {
            "estimated_diameter_min": 55.5334911581,
            "estimated_diameter_max": 124.1766612574
        },
        "miles": {
            "estimated_diameter_min": 0.0345069009,
            "estimated_diameter_max": 0.0771597762
        },
        "feet": {
            "estimated_diameter_min": 182.1964991311,
            "estimated_diameter_max": 407.4037573197
        }
    },
    "is_potentially_hazardous_asteroid": false,
    "close_approach_data": [
        {
            "close_approach_date": "2014-05-19",
            "close_approach_date_full": "2014-May-19 00:54",
            "epoch_date_close_approach": 1400460840000,
            "relative_velocity": {
                "kilometers_per_second": "3.417712119",
                "kilometers_per_hour": "12303.7636284027",
                "miles_per_hour": "7645.0802389928"
            },
            "miss_distance": {
                "astronomical": "0.2041466905",
                "lunar": "79.4130626045",
                "kilometers": "30539910.066349235",
                "miles": "18976620.157660043"
            },
            "orbiting_body": "Earth"
        }
    ],
    "orbital_data": {
        "orbit_id": "9",
        "orbit_determination_date": "2017-04-06 08:40:23",
        "first_observation_date": "2014-04-23",
        "last_observation_date": "2014-05-27",
        "data_arc_in_days": 34,
        "observations_used": 27,
        "orbit_uncertainty": "7",
        "minimum_orbit_intersection": ".191323",
        "jupiter_tisserand_invariant": "3.597",
        "epoch_osculation": "2459000.5",
        "eccentricity": ".4350608070158365",
        "semi_major_axis": "2.126285008175103",
        "inclination": "2.387971951065471",
        "ascending_node_longitude": "22.29075133861475",
        "orbital_period": "1132.480264884169",
        "perihelion_distance": "1.201221736572768",
        "perihelion_argument": "215.3823235456743",
        "aphelion_distance": "3.051348279777438",
        "perihelion_time": "2459065.476285945297",
        "mean_anomaly": "339.3449266485017",
        "mean_motion": ".3178863342371983",
        "equinox": "J2000",
        "orbit_class": {
            "orbit_class_type": "AMO",
            "orbit_class_description": "Near-Earth asteroid orbits similar to that of 1221 Amor",
            "orbit_class_range": "1.017 AU < q (perihelion) < 1.3 AU"
        }
    },
    "is_sentry_object": false
}